IRIDIUM 171             
1 43929U 19002H   24182.56887652 -.00000014  00000+0 -11946-4 0  9994
2 43929  86.3975 293.2746 0002243  90.5373 269.6079 14.34217576286249
IRIDIUM 170             
1 43930U 19002J   24182.58163377  .00002286  00000+0  35859-3 0  9998
2 43930  86.6092 293.0867 0002373  94.8475 265.3013 14.72255640293829
IRIDIUM 167             
1 43931U 19002K   24182.56253063  .00000119  00000+0  35567-4 0  9999
2 43931  86.3966 293.0660 0002293  95.4681 264.6776 14.34216522286245
IRIDIUM 181             
1 56726U 23068S   24182.83176901  .00000747  00000+0  21481-3 0  9993
2 56726  86.8642 347.3494 0002466  93.3524 266.7960 14.43576682 59107
IRIDIUM 177             
1 56727U 23068T   24182.61033283  .00002495  00000+0  32491-3 0  9990
2 56727  86.1976 308.9861 0002743  86.6266 273.5269 14.80221310 60362
IRIDIUM 174             
1 56728U 23068U   24182.60490559  .00002731  00000+0  35598-3 0  9997
2 56728  86.1985 309.0934 0002533  96.3090 263.8420 14.80225237 60369
IRIDIUM 178             
1 56729U 23068V   24182.46427622  .00002946  00000+0  38419-3 0  9996
2 56729  86.5787 327.2548 0002147  97.4453 262.7013 14.80243044 60343
IRIDIUM 179             
1 56730U 23068W   24182.45885236  .00001145  00000+0  14721-3 0  9996
2 56730  86.6793 331.5581 0002331  95.8194 264.3294 14.80239488 60343
